{"type":"FeatureCollection","features":[{"type":"Feature","geometry":{"type":"Polygon","coordinates":[[[-114.98107,43.855],[-114.98905,43.8586],[-115.0003,43.85139],[-114.99906,43.84708],[-115.00374,43.84071],[-115.00222,43.83119],[-115.00425,43.82876],[-115.01272,43.82724],[-115.01975,43.82305],[-115.01881,43.81707],[-115.0225,43.81501],[-115.02226,43.80946],[-115.02647,43.80662],[-115.03056,43.79538],[-115.02881,43.78857],[-115.02991,43.78221],[-115.03811,43.76802],[-115.0361,43.76637],[-115.03526,43.76188],[-115.0352,43.75995],[-115.03905,43.75773],[-115.03668,43.75116],[-115.04241,43.74526],[-115.0402,43.74122],[-115.03223,43.73529],[-115.02944,43.72848],[-115.03143,43.72627],[-115.03321,43.71633],[-115.03837,43.71386],[-115.04356,43.71236],[-115.05205,43.71602],[-115.05964,43.71225],[-115.06466,43.71487],[-115.06784,43.7108],[-115.07379,43.70702],[-115.08421,43.70713],[-115.08777,43.70954],[-115.09183,43.70608],[-115.09897,43.70384],[-115.10406,43.70603],[-115.10492,43.71037],[-115.10783,43.71235],[-115.11496,43.70595],[-115.1238,43.70354],[-115.12381,43.69974],[-115.12718,43.69634],[-115.13417,43.69372],[-115.13934,43.69787],[-115.16555,43.69767],[-115.17311,43.7023],[-115.1812,43.70389],[-115.19311,43.70416],[-115.19903,43.70209],[-115.20464,43.70654],[-115.20413,43.71445],[-115.21104,43.72742],[-115.21812,43.73315],[-115.22014,43.73836],[-115.22572,43.74126],[-115.22885,43.74698],[-115.23651,43.75416],[-115.24538,43.75552],[-115.25045,43.76006],[-115.2597,43.75483],[-115.26844,43.75307],[-115.27156,43.75093],[-115.28449,43.75813],[-115.30312,43.75508],[-115.31105,43.75323],[-115.31786,43.74618],[-115.32738,43.74125],[-115.34004,43.73824],[-115.34543,43.73207],[-115.34911,43.73311],[-115.35111,43.73126],[-115.35082,43.72936],[-115.35518,43.72831],[-115.36349,43.7212],[-115.36321,43.71636],[-115.36586,43.71392],[-115.36701,43.70911],[-115.37343,43.7061],[-115.37536,43.70336],[-115.37348,43.69393],[-115.37975,43.68975],[-115.38282,43.69306],[-115.39546,43.68359],[-115.39492,43.68115],[-115.39818,43.67882],[-115.40597,43.66763],[-115.40995,43.66536],[-115.40909,43.66011],[-115.42482,43.65033],[-115.42651,43.6411],[-115.42395,43.63713],[-115.4248,43.63415],[-115.42736,43.63164],[-115.43285,43.63171],[-115.43571,43.62945],[-115.43331,43.62715],[-115.43617,43.62383],[-115.43507,43.61836],[-115.43254,43.61573],[-115.43235,43.61113],[-115.43562,43.61342],[-115.44036,43.61369],[-115.44483,43.6109],[-115.45119,43.61027],[-115.45692,43.6178],[-115.46918,43.62139],[-115.47658,43.62988],[-115.48108,43.63048],[-115.48336,43.63043],[-115.4833,43.62757],[-115.48646,43.62415],[-115.48704,43.62061],[-115.50278,43.61888],[-115.50532,43.61509],[-115.5231,43.61296],[-115.52715,43.61713],[-115.52241,43.62121],[-115.52138,43.6247],[-115.53126,43.62721],[-115.53201,43.63051],[-115.53636,43.63182],[-115.53639,43.63462],[-115.53867,43.63683],[-115.54962,43.64126],[-115.55228,43.64385],[-115.55806,43.64254],[-115.56993,43.63225],[-115.56998,43.62942],[-115.58093,43.62219],[-115.59211,43.61712],[-115.59585,43.61843],[-115.60219,43.61768],[-115.63371,43.6279],[-115.63785,43.63659],[-115.65575,43.63652],[-115.66212,43.64458],[-115.66911,43.6453],[-115.67058,43.64271],[-115.67868,43.63939],[-115.68285,43.63433],[-115.68611,43.6336],[-115.68817,43.63576],[-115.69353,43.63669],[-115.70242,43.63261],[-115.70656,43.62433],[-115.72064,43.62218],[-115.72644,43.62556],[-115.7315,43.62386],[-115.73671,43.61776],[-115.73791,43.6129],[-115.74086,43.61213],[-115.74794,43.60358],[-115.7532,43.603],[-115.75646,43.60506],[-115.76677,43.60645],[-115.77562,43.60153],[-115.7849,43.5929],[-115.79805,43.59157],[-115.81095,43.59495],[-115.81916,43.59932],[-115.82571,43.59776],[-115.83926,43.60195],[-115.84809,43.60273],[-115.85784,43.60095],[-115.8619,43.59767],[-115.86179,43.5957],[-115.85622,43.58855],[-115.84804,43.58369],[-115.8445,43.5771],[-115.84595,43.57239],[-115.84504,43.56828],[-115.84873,43.56351],[-115.85347,43.56083],[-115.85617,43.55662],[-115.86596,43.55732],[-115.87475,43.55371],[-115.88571,43.55421],[-115.88611,43.54705],[-115.88919,43.5445],[-115.89157,43.54501],[-115.89432,43.54245],[-115.89722,43.54223],[-115.89883,43.53899],[-115.90191,43.53818],[-115.90526,43.53157],[-115.91323,43.52736],[-115.91354,43.52571],[-115.92389,43.51872],[-115.93425,43.51904],[-115.93719,43.51421],[-115.9346,43.51285],[-115.93272,43.50848],[-115.92743,43.50701],[-115.92314,43.50963],[-115.92024,43.50691],[-115.91462,43.50683],[-115.91148,43.50494],[-115.9133,43.49826],[-115.90921,43.49432],[-115.89058,43.49242],[-115.88615,43.49325],[-115.88266,43.48921],[-115.8821,43.48326],[-115.87852,43.48213],[-115.87698,43.47941],[-115.86865,43.47979],[-115.85906,43.48554],[-115.85213,43.48621],[-115.84259,43.4856],[-115.84035,43.48373],[-115.83575,43.48554],[-115.82624,43.48013],[-115.81965,43.47975],[-115.81498,43.47733],[-115.81331,43.47066],[-115.8143,43.46833],[-115.80534,43.46476],[-115.80427,43.46247],[-115.79567,43.45824],[-115.7943,43.45564],[-115.78929,43.45521],[-115.78516,43.45189],[-115.78528,43.4469],[-115.78216,43.44588],[-115.77927,43.44173],[-115.77778,43.43672],[-115.7792,43.43568],[-115.77838,43.43294],[-115.77976,43.42995],[-115.79034,43.42707],[-115.78691,43.42546],[-115.78465,43.42153],[-115.78093,43.42345],[-115.76795,43.42476],[-115.76694,43.42211],[-115.76138,43.42026],[-115.75964,43.41561],[-115.75521,43.41453],[-115.75403,43.41181],[-115.74783,43.41048],[-115.74491,43.40422],[-115.7469,43.39964],[-115.74346,43.39203],[-115.7438,43.38904],[-115.73802,43.384],[-115.73256,43.3847],[-115.72605,43.3814],[-115.72041,43.3839],[-115.70849,43.38247],[-115.70503,43.38513],[-115.70203,43.39105],[-115.69667,43.39493],[-115.69078,43.3953],[-115.68561,43.40081],[-115.67259,43.40237],[-115.66351,43.39894],[-115.6583,43.40616],[-115.6586,43.41353],[-115.65698,43.41495],[-115.65268,43.41414],[-115.6402,43.40156],[-115.63924,43.39711],[-115.63241,43.39098],[-115.63029,43.38505],[-115.62196,43.37522],[-115.62181,43.37243],[-115.6167,43.36921],[-115.61497,43.36652],[-115.61549,43.36424],[-115.61003,43.36056],[-115.61021,43.35837],[-115.6057,43.35291],[-115.59684,43.35462],[-115.59313,43.34975],[-115.5829,43.34912],[-115.57651,43.34438],[-115.57169,43.33595],[-115.5634,43.33522],[-115.55801,43.33791],[-115.55404,43.33769],[-115.553,43.33655],[-115.5543,43.33226],[-115.55121,43.32917],[-115.52714,43.31986],[-115.51061,43.31896],[-115.50584,43.31715],[-115.4972,43.31776],[-115.49511,43.31976],[-115.49,43.31943],[-115.48638,43.31737],[-115.48554,43.31256],[-115.48673,43.30976],[-115.48087,43.30499],[-115.4751,43.30296],[-115.47528,43.30081],[-115.47147,43.30107],[-115.47018,43.29873],[-115.46114,43.29589],[-115.46051,43.29413],[-115.44992,43.28899],[-115.43912,43.28951],[-115.43702,43.28531],[-115.44538,43.27108],[-115.4445,43.2659],[-115.43928,43.26628],[-115.42848,43.25723],[-115.42557,43.25778],[-115.42129,43.26151],[-115.41126,43.26102],[-115.40988,43.25836],[-115.40543,43.25768],[-115.40137,43.251],[-115.4035,43.24543],[-115.38699,43.24076],[-115.37752,43.233],[-115.36254,43.22595],[-115.35845,43.22606],[-115.35168,43.23006],[-115.34661,43.22973],[-115.34585,43.23468],[-115.34265,43.23717],[-115.34701,43.23939],[-115.35244,43.23939],[-115.35226,43.24635],[-115.35052,43.24826],[-115.35654,43.25192],[-115.3565,43.25513],[-115.3545,43.25779],[-115.34908,43.25855],[-115.34743,43.26046],[-115.35097,43.26814],[-115.34928,43.27162],[-115.35293,43.2774],[-115.34376,43.28207],[-115.34079,43.28729],[-115.3413,43.29014],[-115.33597,43.28837],[-115.32992,43.29075],[-115.32602,43.28675],[-115.32288,43.28623],[-115.3185,43.28814],[-115.31651,43.29603],[-115.31302,43.29867],[-115.31386,43.30313],[-115.3078,43.30391],[-115.30422,43.30706],[-115.30486,43.30921],[-115.30261,43.30984],[-115.30313,43.31385],[-115.30618,43.31495],[-115.30604,43.31646],[-115.30027,43.31745],[-115.2999,43.31943],[-115.28396,43.32064],[-115.265,43.32439],[-115.26221,43.33043],[-115.25907,43.33103],[-115.26034,43.33495],[-115.25936,43.34171],[-115.25498,43.34396],[-115.23748,43.34825],[-115.23035,43.34337],[-115.22778,43.34315],[-115.22647,43.3455],[-115.21903,43.34864],[-115.21897,43.35082],[-115.21051,43.35674],[-115.19575,43.35507],[-115.18857,43.36389],[-115.18202,43.36488],[-115.17695,43.36752],[-115.17097,43.36747],[-115.1692,43.36996],[-115.1617,43.3693],[-115.15866,43.36739],[-115.15877,43.36593],[-115.15553,43.36635],[-115.15233,43.36446],[-115.14406,43.3679],[-115.13833,43.37409],[-115.13149,43.3765],[-115.13002,43.37932],[-115.12452,43.37903],[-115.11908,43.37665],[-115.11829,43.37483],[-115.11175,43.37458],[-115.10907,43.37613],[-115.10566,43.38253],[-115.09236,43.379],[-115.0855,43.38526],[-115.0848,43.3882],[-115.07573,43.38702],[-115.0665,43.38958],[-115.06351,43.39521],[-115.06018,43.397],[-115.0599,43.39922],[-115.05417,43.4027],[-115.05059,43.41223],[-115.05122,43.41508],[-115.04829,43.41705],[-115.0478,43.42025],[-115.04449,43.42125],[-115.04268,43.42],[-115.0412,43.42156],[-115.04363,43.42529],[-115.04281,43.42746],[-115.02991,43.42827],[-115.02802,43.42554],[-115.0171,43.42932],[-115.01486,43.42668],[-115.0117,43.42676],[-115.00735,43.42849],[-115.00368,43.43317],[-115.00006,43.43049],[-114.99651,43.43147],[-114.99391,43.43573],[-114.99686,43.43855],[-114.99726,43.44193],[-114.98881,43.4448],[-114.98679,43.45017],[-114.97848,43.45537],[-114.97816,43.4585],[-114.97375,43.46189],[-114.97412,43.46598],[-114.96108,43.47363],[-114.96005,43.47568],[-114.95582,43.47671],[-114.95968,43.48333],[-114.95993,43.48791],[-114.96508,43.49401],[-114.96444,43.49724],[-114.95789,43.50097],[-114.94975,43.49416],[-114.94237,43.49122],[-114.93793,43.49161],[-114.93039,43.49596],[-114.92767,43.49987],[-114.92911,43.50346],[-114.9289,43.51074],[-114.9262,43.51367],[-114.9286,43.51897],[-114.91953,43.52761],[-114.91264,43.53111],[-114.90468,43.53268],[-114.90111,43.53178],[-114.89575,43.5355],[-114.87956,43.53781],[-114.87225,43.53607],[-114.86753,43.53228],[-114.85638,43.53488],[-114.84959,43.53187],[-114.84373,43.53153],[-114.83193,43.51827],[-114.80798,43.51673],[-114.80285,43.51463],[-114.79772,43.51731],[-114.79442,43.51742],[-114.79304,43.51515],[-114.78568,43.51736],[-114.77802,43.51095],[-114.7826,43.50998],[-114.78379,43.5066],[-114.77924,43.50102],[-114.77957,43.49265],[-114.77529,43.48352],[-114.76442,43.48287],[-114.75545,43.47719],[-114.74872,43.47725],[-114.74263,43.47324],[-114.72191,43.46968],[-114.71581,43.46209],[-114.7117,43.46036],[-114.7071,43.46806],[-114.70001,43.46937],[-114.69856,43.47388],[-114.69507,43.47422],[-114.69099,43.47814],[-114.68744,43.48576],[-114.68393,43.48946],[-114.68339,43.49268],[-114.67356,43.49767],[-114.67192,43.50059],[-114.67492,43.50573],[-114.6739,43.5085],[-114.65817,43.51102],[-114.66074,43.51206],[-114.66401,43.51865],[-114.65942,43.52507],[-114.6592,43.52996],[-114.66533,43.53282],[-114.66796,43.53851],[-114.66247,43.54671],[-114.65546,43.54775],[-114.65555,43.55214],[-114.64614,43.55766],[-114.64174,43.56874],[-114.63641,43.57414],[-114.63717,43.57634],[-114.642,43.57828],[-114.64258,43.58329],[-114.65198,43.59316],[-114.65885,43.59303],[-114.66273,43.59473],[-114.6825,43.5906],[-114.68291,43.59428],[-114.68048,43.6027],[-114.68158,43.61093],[-114.67606,43.62003],[-114.673,43.62051],[-114.67091,43.62398],[-114.67117,43.62656],[-114.66887,43.62968],[-114.6724,43.63657],[-114.66853,43.64145],[-114.66276,43.64449],[-114.66331,43.65106],[-114.66132,43.65545],[-114.66257,43.66116],[-114.66629,43.66409],[-114.66868,43.66866],[-114.67592,43.66846],[-114.67917,43.66995],[-114.67917,43.6741],[-114.68766,43.68377],[-114.68763,43.69082],[-114.67634,43.698],[-114.68218,43.70834],[-114.68038,43.72313],[-114.67625,43.72582],[-114.67498,43.72985],[-114.66621,43.73902],[-114.67048,43.74431],[-114.68154,43.74271],[-114.69081,43.75129],[-114.68916,43.76647],[-114.69547,43.77543],[-114.69261,43.78435],[-114.694,43.78875],[-114.69804,43.79375],[-114.70185,43.80502],[-114.71635,43.81536],[-114.71957,43.81477],[-114.72157,43.80792],[-114.7247,43.80592],[-114.7305,43.80739],[-114.73712,43.80564],[-114.74057,43.80683],[-114.74946,43.80152],[-114.75495,43.80075],[-114.76037,43.79172],[-114.7662,43.79347],[-114.77522,43.79248],[-114.78047,43.80052],[-114.78685,43.80255],[-114.80059,43.80258],[-114.80265,43.80037],[-114.81569,43.7983],[-114.8276,43.78817],[-114.8315,43.79069],[-114.83219,43.79325],[-114.8398,43.79453],[-114.85335,43.79115],[-114.85598,43.79564],[-114.85388,43.80558],[-114.84768,43.8108],[-114.84875,43.81343],[-114.84767,43.81638],[-114.85023,43.81788],[-114.8592,43.8179],[-114.86665,43.82231],[-114.88231,43.82321],[-114.88581,43.82431],[-114.89138,43.82961],[-114.90103,43.82868],[-114.91066,43.83157],[-114.91613,43.83675],[-114.92423,43.83719],[-114.93287,43.84089],[-114.95178,43.85438],[-114.95903,43.85378],[-114.9698,43.84858],[-114.97363,43.85347],[-114.98107,43.855]]]},"properties":{"huc8":"17050113","name":"South Fork Boise","areasqkm":3383.5700000000002,"states":"ID"}}]}